TELSTAR 19V             
1 43562U 18059A   21115.41032278 -.00000281  00000-0  00000-0 0  9992
2 43562   0.0122 220.0642 0001857 246.7379 191.5549  1.00271146 10313
TELKOM 4 (MERAH PUTIH)  
1 43587U 18064A   21115.53720628 -.00000346  00000-0  00000-0 0  9993
2 43587   0.0199 137.9027 0001417 273.4798 103.7751  1.00270885 10039
TELSTAR 18V (APSTAR 5C) 
1 43611U 18069A   21115.39953745 -.00000296  00000-0  00000-0 0  9992
2 43611   0.0228 244.8643 0002066 143.9425 106.6527  1.00270132  9790
AZERSPACE 2 (IS-38)     
1 43632U 18074A   21115.52473156  .00000134  00000-0  00000-0 0  9999
2 43632   0.0131 256.4341 0001482 136.7618  54.5804  1.00269950  9644
HORIZONS 3E             
1 43633U 18074B   21115.55035962 -.00000033  00000-0  00000-0 0  9991
2 43633   0.0175  18.0345 0000937 294.3928 268.4709  1.00271170  9500
AEHF-4 (USA 288)        
1 43651U 18079A   21115.55497694  .00000121  00000-0  00000-0 0  9997
2 43651   3.2457 312.2212 0004347 116.0239 195.2535  1.00270163  9453
BEIDOU-3 G1             
1 43683U 18085A   21115.28938346 -.00000280  00000-0  00000-0 0  9990
2 43683   1.1412 233.3699 0002476   9.0979 215.2977  1.00269505  9216
GSAT-29                 
1 43698U 18089A   21115.45493226  .00000083  00000-0  00000-0 0  9992
2 43698   0.1158  93.1918 0001906 300.8987  38.4499  1.00269786  8946
ES'HAIL 2               
1 43700U 18090A   21115.23370205  .00000142  00000-0  00000-0 0  9991
2 43700   0.0234 238.4100 0001206 135.7967 309.1708  1.00270579  8838
GEO-KOMPSAT-2A          
1 43823U 18100A   21115.39770551 -.00000346  00000-0  00000-0 0  9991
2 43823   0.0204 278.0858 0001099  48.9831 157.9942  1.00271873  8787
GSAT-11                 
1 43824U 18100B   21115.45868340 -.00000079  00000-0  00000-0 0  9996
2 43824   0.0673 270.5409 0006619 159.7737  22.4990  1.00272410  8660
GSAT-7A                 
1 43864U 18105A   21115.52822100  .00000025  00000-0  00000-0 0  9997
2 43864   0.0680  99.7511 0002527 321.1881  45.7082  1.00271733  8630
COSMOS 2533             
1 43867U 18107A   21115.52970400 -.00000041  00000-0  00000-0 0  9998
2 43867   0.0434  89.6132 0000489   4.7768  20.0727  1.00271372  8585
TJS-3                   
1 43874U 18110A   21115.70118774 -.00000211  00000-0  00000+0 0  9996
2 43874   0.0220  84.3264 0004225   6.4730 103.3268  1.00270599  8646
TJS-3 AKM               
1 43917U 18110C   21115.67102616  .00000055  00000-0  00000+0 0  9993
2 43917   0.4217 277.7723 0002354 261.5100 335.2187  1.00268913  8506
CHINASAT 2D (ZX 2D)     
1 43920U 19001A   21115.40191359 -.00000339  00000-0  00000-0 0  9997
2 43920   0.0148 293.2243 0002883 149.2135  45.9085  1.00271002 35242
HELLAS-SAT 4 & SGS-1    
1 44034U 19007A   21115.52351025  .00000150  00000-0  00000-0 0  9991
2 44034   0.0693 122.1774 0003946   8.3739 310.6593  1.00269527  8514
GSAT-31                 
1 44035U 19007B   21115.09456079  .00000123  00000-0  00000-0 0  9999
2 44035   0.0766 100.2223 0002520 241.0142 314.0236  1.00272328  8136
NUSANTARA SATU          
1 44048U 19009A   21115.54494171 -.00000237  00000-0  00000-0 0  9997
2 44048   0.0173 237.7725 0002078 144.4615 173.7255  1.00269842  7928
CHINASAT 6C (ZX 6C)     
1 44067U 19012A   21115.61336323 -.00000339  00000-0  00000-0 0  9997
2 44067   0.0461 267.8430 0001065  37.4895 259.3435  1.00269909  7893
WGS 10 (USA 291)        
1 44071U 19014A   21115.52769758  .00000044  00000-0  00000-0 0  9998
2 44071   0.0103 237.6935 0000493 190.3975  35.9382  1.00271532  7791
TIANLIAN 2-01           
1 44076U 19017A   21115.53162319 -.00000140  00000-0  00000-0 0  9995
2 44076   1.2599 283.5700 0030955 216.9712 344.6562  1.00270793  7774
ARABSAT-6A              
1 44186U 19021A   21115.23466163  .00000151  00000-0  00000-0 0  9994
2 44186   0.0557 330.7715 0002287  39.5189 318.1383  1.00270191  7322
BEIDOU-3 IGSO-1         
1 44204U 19023A   21115.25106198 -.00000214  00000-0  00000-0 0  9999
2 44204  55.9482  57.4925 0015421 204.3845 153.7807  1.00255217  7517
BEIDOU-2 G8             
1 44231U 19027A   21115.52112102 -.00000250  00000-0  00000+0 0  9994
2 44231   0.3344 329.6263 0005040 231.1612 345.0331  1.00272821  7230
YAMAL 601               
1 44307U 19031A   21115.52551668  .00000118  00000-0  00000-0 0  9990
2 44307   0.0098 234.9971 0002333 158.4567  58.4933  1.00272814  7092
AT&T T-16               
1 44333U 19034A   21115.53876284 -.00000117  00000-0  00000-0 0  9997
2 44333   0.0120 266.1504 0000641 322.3371  78.3897  1.00272800  6804
EUTELSAT 7C             
1 44334U 19034B   21115.30174604  .00000046  00000-0  00000-0 0  9990
2 44334   0.0172 249.6784 0003272 129.8184 309.6558  1.00269273  7268
BEIDOU-3 IGSO-2         
1 44337U 19035A   21115.33870307 -.00000078  00000-0  00000-0 0  9996
2 44337  55.0822 175.4692 0020121 190.4902  73.9762  1.00296422  6859
COSMOS 2539             
1 44457U 19048A   21115.58989678  .00000079  00000-0  00000-0 0  9992
2 44457   0.0227 151.1417 0000258  65.0617 221.9841  1.00273684  6393
EDRS-C                  
1 44475U 19049A   21114.32292001  .00000152  00000-0  00000-0 0  9993
2 44475   0.0739 276.4839 0000788  96.4695 347.0559  1.00269520  6358
INTELSAT 39 (IS-39)     
1 44476U 19049B   21115.45624080  .00000031  00000-0  00000-0 0  9991
2 44476   0.0181 264.9982 0000529 290.3211 244.5519  1.00270918  6319
AMOS-17                 
1 44479U 19050A   21115.23195731  .00000107  00000-0  00000-0 0  9992
2 44479   0.0179 260.9829 0001535 160.3222 252.6640  1.00272885  6355
AEHF-5 (USA 292)        
1 44481U 19051A   21115.08580027  .00000072  00000-0  00000-0 0  9996
2 44481   5.3108 306.3062 0004030  88.5198 263.8615  1.00271391  6423
EUTELSAT 5 WEST B       
1 44624U 19067A   21115.29939066 -.00000044  00000-0  00000-0 0  9996
2 44624   0.0724  37.7968 0004905  36.8312 241.6991  1.00271909  5619
MEV-1                   
1 44625U 19067B   21115.29485441 -.00000204  00000-0  00000-0 0  9998
2 44625   0.0217 110.6276 0001346 301.1828 240.3512  1.00268862  4131
TJS-4                   
1 44637U 19070A   21115.46060258 -.00000171  00000-0  00000-0 0  9992
2 44637   0.0128  22.3966 0003749  31.0418  49.5496  1.00267301  5726
BEIDOU-3 IGSO-3         
1 44709U 19073A   21114.84524338 -.00000147  00000-0  00000-0 0  9993
2 44709  57.9315 300.7029 0018327 196.9561 125.2443  1.00290742  5602
TIBA-1                  
1 44800U 19080A   21115.23562123  .00000154  00000-0  00000-0 0  9998
2 44800   0.0589   2.5627 0002083  29.1955 302.0310  1.00270210  5216
INMARSAT GX5            
1 44801U 19080B   21115.23073602  .00000073  00000-0  00000-0 0  9998
2 44801   0.0504  46.6895 0002140 355.1298 265.7078  1.00272360  5265
JCSAT-18 (KACIFIC 1)    
1 44868U 19091A   21115.54494171 -.00000203  00000-0  00000-0 0  9991
2 44868   0.0201 235.5795 0000482 182.9543 141.4116  1.00269663  5182
ELEKTRO-L 3             
1 44903U 19095A   21115.53083807 -.00000099  00000-0  00000-0 0  9997
2 44903   0.0682  90.4917 0002206 358.1660  32.2631  1.00270804  4886
SHIJIAN-20 (SJ-20)      
1 44910U 19097A   21115.70118774 -.00000208  00000-0  00000+0 0  9999
2 44910   0.8526  94.3537 0012707 351.7953 107.6329  1.00274985  4853
TJS-5                   
1 44978U 20002A   21115.51993840 -.00000259  00000-0  00000-0 0  9992
2 44978   0.1044  89.9595 0002674   1.7779 105.7178  0.99576705  4863
GSAT-30                 
1 45026U 20005A   21115.38872021 -.00000167  00000-0  00000-0 0  9990
2 45026   0.0842  97.1079 0004600 333.8368   5.6041  1.00271460  4674
EUTELSAT KONNECT        
1 45027U 20005B   21115.30183326  .00000048  00000-0  00000-0 0  9993
2 45027   0.0509  92.8653 0000451 328.1138 268.4349  1.00271083  5499
JCSAT-17                
1 45245U 20013A   21112.99127187 -.00000325  00000-0  00000-0 0  9998
2 45245   6.5765 344.1984 0003150  40.3973 319.5031  1.00270334  4375
GEO-KOMPSAT-2B          
1 45246U 20013B   21115.39770551 -.00000346  00000-0  00000-0 0  9998
2 45246   0.0340  66.2570 0002268   0.0301  58.7837  1.00271669  4428
BEIDOU-3 G2             
1 45344U 20017A   21115.53171043 -.00000148  00000-0  00000-0 0  9998
2 45344   2.5034 335.1630 0002925  90.9274  59.1244  1.00271542  4434
AEHF-6 (USA 298)        
1 45465U 20022B   21115.46064253 -.00000174  00000-0  00000-0 0  9993
2 45465   6.8942 306.4727 0003986  99.0976 239.8013  1.00266988  4178
BEIDOU-3 G3             
1 45807U 20040A   21115.53772970 -.00000360  00000-0  00000-0 0  9990
2 45807   2.4078 298.5026 0006729  16.5404 202.8615  1.00272979  3243
APSTAR 6D               
1 45863U 20045A   21115.39883958 -.00000320  00000-0  00000-0 0  9996
2 45863   0.0549  85.0151 0003345 337.3194  68.8886  1.00270823  3023
KOREASAT 116            
1 45920U 20048A   21115.39535014 -.00000364  00000-0  00000-0 0  9998
2 45920   0.0135 274.4092 0001121 108.3545  89.3820  1.00274164  2805
EXPRESS 103             
1 45985U 20053A   21115.10424398 -.00000282  00000-0  00000+0 0  9994
2 45985   0.0319   4.8582 0000106 210.2466 132.2775  1.00270014  2791
EXPRESS 80              
1 45986U 20053B   21115.04076858 -.00000138  00000-0  00000-0 0  9993
2 45986   0.0080 307.2935 0001060 298.4488  62.1998  1.00270974  2794
BSAT-4B                 
1 46112U 20056A   21115.40396456 -.00000352  00000-0  00000-0 0  9995
2 46112   0.0917 118.3087 0003057 334.7688  15.8246  1.00269851  2544
MEV-2                   
1 46113U 20056B   21115.30017579 -.00000013  00000-0  00000-0 0  9995
2 46113   0.0532  81.7772 0001150 318.9969 279.8181  1.00270647 61753
GALAXY 30 (G-30)        
1 46114U 20056C   21115.52247675  .00000035  00000-0  00000-0 0  9995
2 46114   0.0137 223.6515 0002196 174.8416 238.3564  1.00269183  2533
GAOFEN 13               
1 46610U 20071A   21115.40131227 -.00000367  00000-0  00000-0 0  9994
2 46610   1.5326 279.5028 0004888 240.2469 316.0978  1.00266084  2074
